LEMUR-2-VLADIMIR        
1 43746U 18096AD  22026.20359357  .00015076  00000+0  43446-3 0  9996
2 43746  97.3756 110.9917 0016649 192.7407 167.3419 15.35688920176447
LEMUR-2-CHRISTINAHOLT   
1 43882U 18111G   22026.30168028  .00002450  00000+0  21179-3 0  9990
2 43882  97.6826 296.1417 0013625  75.8732 284.4003 14.98060618166472
LEMUR-2-TINYKEV         
1 43883U 18111H   22026.24552662  .00001457  00000+0  12750-3 0  9996
2 43883  97.6829 296.2370 0013300  74.8630 285.4063 14.98194980166478
LEMUR-2-REMY-COLTON     
1 43884U 18111J   22026.43837371  .00002564  00000+0  21956-3 0  9999
2 43884  97.6857 296.7683 0013399  75.2738 284.9969 14.98391711166520
LEMUR-2-GUSTAVO         
1 43885U 18111K   22026.29804400  .00002762  00000+0  23760-3 0  9996
2 43885  97.6836 296.4337 0013334  75.1516 285.1182 14.98150874166481
LEMUR-2-ZO              
1 43886U 18111L   22026.29909289  .00002799  00000+0  24006-3 0  9992
2 43886  97.6845 296.6662 0013277  74.2096 286.0589 14.98245312166498
LEMUR-2-NATALIEMURRAY   
1 43887U 18111M   22026.27650869  .00001958  00000+0  16896-3 0  9992
2 43887  97.6833 296.8826 0012248  72.5496 287.7064 14.98360382168507
LEMUR-2-SARAHBETTYBOO   
1 43888U 18111N   22026.30835669  .00002118  00000+0  18216-3 0  9997
2 43888  97.6873 297.1154 0013420  70.6438 289.6234 14.98408435168511
LEMUR-2-DAISY-HARPER    
1 43889U 18111P   22025.71309353  .00001564  00000+0  13553-3 0  9991
2 43889  97.6879 296.6855 0013243  70.6127 289.6526 14.98480948168421
LEMUR-2-JOHANLORAN      
1 44084U 19018G   22025.74551599  .00010745  00000+0  38482-3 0  9999
2 44084  97.3367  89.0577 0010169 255.1672 104.8441 15.28884472156933
LEMUR-2-BEAUDACIOUS     
1 44085U 19018H   22026.16330410  .00011235  00000+0  41407-3 0  9990
2 44085  97.3359  88.9188 0010330 256.7314 103.2774 15.27929402156957
LEMUR-2-ELHAM           
1 44086U 19018J   22026.10064200  .00011186  00000+0  39928-3 0  9996
2 44086  97.3385  89.7647 0010121 253.9071 106.1055 15.28983032156991
LEMUR-2-VICTOR-ANDREW   
1 44087U 19018K   22025.91170123  .00012450  00000+0  44077-3 0  9993
2 44087  97.3389  89.7306 0010050 255.2928 104.7199 15.29225405156981
LEMUR-2-LILLYJO         
1 44396U 19038L   22025.86825269  .00005821  00000+0  30602-3 0  9993
2 44396  97.6061 354.5698 0021179 259.0652 100.8197 15.15878910141452
LEMUR-2-WANLI           
1 44402U 19038S   22026.41352301  .00004494  00000+0  23995-3 0  9997
2 44402  97.6074 355.0105 0021441 258.1007 101.7821 15.15452484141536
LEMUR-2-MORAG           
1 44403U 19038T   22025.90801972  .00005430  00000+0  28527-3 0  9991
2 44403  97.6114 355.1817 0020175 262.7197  97.1742 15.15952347141473
LEMUR-2-DUSTINTHEWIND   
1 44405U 19038V   22025.87215696  .00005236  00000+0  27991-3 0  9999
2 44405  97.6067 354.3771 0021338 259.5140 100.3687 15.15334097141455
LEMUR-2-ALEX-MADDY      
1 44407U 19038X   22025.63881460  .00003797  00000+0  20862-3 0  9993
2 44407  97.6140 354.2600 0020635 267.3254  92.5615 15.14552134141378
LEMUR-2-EJATTA          
1 44409U 19038Z   22025.87323633  .00006052  00000+0  31580-3 0  9990
2 44409  97.6056 354.7790 0020892 257.2154 102.6743 15.16132431141486
LEMUR-2-GREGROBINSON    
1 44411U 19038AB  22025.88902060  .00004305  00000+0  22734-3 0  9991
2 44411  97.6120 355.1592 0020200 264.6894  95.2033 15.15897235141132
LEMUR-2-YNDRD           
1 44413U 19038AD  22025.84277543  .00003984  00000+0  21937-3 0  9996
2 44413  97.6125 354.3415 0020554 266.5006  93.3875 15.14445988141419
LEMUR-2-JPGSQUARED      
1 44855U 19089D   22025.87392218  .00001392  00000+0  11434-3 0  9994
2 44855  36.9644 224.5108 0004302 146.7044 213.3969 15.00602058116577
LEMUR-2-HIMOMANDDAD     
1 44860U 19089J   22025.89649229  .00003112  00000+0  24868-3 0  9996
2 44860  36.9642 225.5962 0004413 138.6718 221.4358 15.00456999116440
LEMUR-2-PAPPY           
1 44861U 19089K   22025.94293527  .00002866  00000+0  22954-3 0  9998
2 44861  36.9641 225.0334 0004503 142.0378 218.0681 15.00458212116518
LEMUR-2-THEODOSIA       
1 44863U 19089M   22025.84617373  .00001347  00000+0  11105-3 0  9997
2 44863  36.9637 225.1748 0004589 143.7011 216.4043 15.00522675116419
LEMUR-2-ETHANOAKES      
1 46298U 20061AC  22025.75445616  .00006189  00000+0  34877-3 0  9992
2 46298  97.4672 100.0164 0001352  46.6259 313.5085 15.13552909 76908
LEMUR-2-OSCARLATOR      
1 46299U 20061AD  22025.76303010  .00005893  00000+0  33260-3 0  9991
2 46299  97.4675 100.0241 0001279  51.0165 309.1180 15.13515844 76939
LEMUR-2-SCHMIDTFALL     
1 46315U 20061AV  22026.48396237  .00006087  00000+0  33905-3 0  9995
2 46315  97.4684 101.0684 0001117 325.3173  34.7986 15.13973996 77108
LEMUR-2-DJUPROERA       
1 46316U 20061AW  22026.46214757  .00006429  00000+0  35632-3 0  9999
2 46316  97.4678 101.0639 0001243 324.5884  35.5264 15.14133272 77106
LEMUR-2-SQUAREJAWS      
1 46317U 20061AX  22026.46966685  .00006505  00000+0  36098-3 0  9996
2 46317  97.4678 101.0635 0001157 323.3751  36.7401 15.14086107 77118
LEMUR-2-URSA-AVION      
1 46318U 20061AY  22025.73471805  .00005949  00000+0  33068-3 0  9996
2 46318  97.4676 100.3583 0001189 318.5987  41.5154 15.14060349 77000
LEMUR-2-SLICERS         
1 46500U 20068Q   22025.82144127  .00002887  00000+0  21586-3 0  9990
2 46500  97.7109 326.6089 0014829  60.6593 299.6108 15.03492220 72661
LEMUR-2-DAYWZAGOODDAY   
1 46501U 20068R   22025.79836355  .00002632  00000+0  19556-3 0  9990
2 46501  97.7108 326.6566 0015373  58.7061 301.5648 15.03813200 72650
LEMUR-2-SUSURRUS        
1 46502U 20068S   22025.82252713  .00002719  00000+0  20353-3 0  9998
2 46502  97.7121 326.6033 0014383  63.5247 296.7451 15.03510002 72667
LEMUR-2-NICHOL          
1 46503U 20068T   22025.78751872  .00002937  00000+0  21893-3 0  9996
2 46503  97.7091 326.4841 0014330  63.1655 297.1033 15.03602222 72656
LEMUR-2-OZARAK          
1 46908U 20081D   22026.58208184  .00003411  00000+0  27487-3 0  9995
2 46908  36.9009 345.7534 0007800 340.1487  19.8932 15.00025404 66846
LEMUR-2-JINDRA          
1 46909U 20081E   22025.61191068  .00004140  00000+0  33032-3 0  9994
2 46909  36.9000 350.9736 0007845 337.5074  22.5297 15.00250878 66717
LEMUR-2-WALLACE         
1 46910U 20081F   22025.61273368  .00003800  00000+0  30405-3 0  9993
2 46910  36.9017 350.9761 0007981 335.9500  24.0847 15.00203136 66704
LEMUR-2-JEREMIAH        
1 46911U 20081G   22025.59398769  .00003760  00000+0  30033-3 0  9996
2 46911  36.9005 350.8320 0007770 341.4649  18.5790 15.00284942 66714
LEMUR-2-NEVA            
1 47450U 21006AP  22025.83447444  .00004483  00000+0  24668-3 0  9995
2 47450  97.4672  88.1597 0012604  59.0693 301.1776 15.14494112 55692
LEMUR-2-SAOIRSEDH5GUO   
1 47453U 21006AS  22025.83322528  .00004985  00000+0  27531-3 0  9992
2 47453  97.4698  88.1542 0011406  60.9822 299.2552 15.14317122 55680
LEMUR-2-NALLYWACKER     
1 47457U 21006AW  22025.84943844  .00005266  00000+0  28898-3 0  9997
2 47457  97.4670  88.1595 0012364  58.7388 301.5054 15.14513882 55694
LEMUR-2-MANGO1          
1 47493U 21006CJ  22025.71373888  .00003787  00000+0  21169-3 0  9998
2 47493  97.4616  87.5993 0011725  61.7730 298.4684 15.14036373 55669
LEMUR-2-RUAIRI-EILIDH   
1 47511U 21006DC  22025.70690923  .00004117  00000+0  23261-3 0  9993
2 47511  97.4612  87.2986 0009494  65.6733 294.5489 15.13615457 55644
LEMUR-2-JENNIFERSONG    
1 47525U 21006DR  22025.84163655  .00004841  00000+0  26591-3 0  9993
2 47525  97.4628  87.9600 0012433  59.1187 301.1266 15.14518066 55696
LEMUR-2-CHANTAL         
1 47529U 21006DV  22025.83427840  .00004059  00000+0  23196-3 0  9994
2 47529  97.4624  87.3508 0008870  67.4177 292.7992 15.13218842 56610
LEMUR-2-NOOBNOOB        
1 47538U 21006DY  22025.68425244  .00003287  00000+0  18342-3 0  9992
2 47538  97.4684  87.9959 0012220  60.4910 299.7539 15.14181900 55667
LEMUR-2-AMANDA-SVANTE   
1 48269U 21034B   22026.18691591  .00001463  00000+0  17199-3 0  9994
2 48269  97.7653 100.8296 0003913 162.8058 197.3291 14.86344148 40391
LEMUR-2-SPECIAL-K       
1 48273U 21034F   22026.46137185  .00001600  00000+0  18772-3 0  9995
2 48273  97.7653 101.0849 0003971 158.9931 201.1448 14.86300016 40443
LEMUR-2-JACKSON         
1 48885U 21059G   22026.23740282  .00005482  00000+0  30913-3 0  9997
2 48885  97.5335 157.1107 0007504 228.0829 131.9763 15.13564633 32413
LEMUR-2-ANNABANANA      
1 48923U 21059AW  22025.91434928  .00007088  00000+0  38885-3 0  9991
2 48923  97.5275 156.9273 0011494 219.2868 140.7531 15.14415475 32385
LEMUR-2-JOHN-TREIRES    
1 48925U 21059AY  22025.92067958  .00006866  00000+0  37190-3 0  9990
2 48925  97.5323 157.1753 0014070 224.2969 135.7137 15.14855380 32398
LEMUR-2-AC-CUBED        
1 48927U 21059BA  22025.89464170  .00006001  00000+0  32457-3 0  9997
2 48927  97.5301 157.1471 0016306 227.8684 132.1163 15.14929982 32390
LEMUR-2-MERIMA          
1 48929U 21059BC  22025.87810875  .00006791  00000+0  36456-3 0  9993
2 48929  97.5277 157.1131 0016202 229.0732 130.9098 15.15145738 32393
LEMUR-2-CARLSANTAMARI   
1 48959U 21059CJ  22026.35291797  .00006733  00000+0  35665-3 0  9993
2 48959  97.5292 157.7414 0015543 232.6668 127.3149 15.15635525 32472
